[{"OBJECT_NAME":"CATSAT","OBJECT_ID":"2024-125J","EPOCH":"2026-03-09T13:24:35.272512","MEAN_MOTION":15.48684945,"ECCENTRICITY":0.00278215,"INCLINATION":97.2211,"RA_OF_ASC_NODE":280.4545,"ARG_OF_PERICENTER":188.3522,"MEAN_ANOMALY":171.727,"EPHEMERIS_TYPE":0,"CLASSIFICATION_TYPE":"U","NORAD_CAT_ID":60246,"ELEMENT_SET_NO":999,"REV_AT_EPOCH":9192,"BSTAR":0.00082380807,"MEAN_MOTION_DOT":0.00044864,"MEAN_MOTION_DDOT":0},{"OBJECT_NAME":"OBJECT B","OBJECT_ID":"2021-015B","EPOCH":"2026-03-09T15:14:34.210752","MEAN_MOTION":15.41258714,"ECCENTRICITY":0.0021689,"INCLINATION":97.1346,"RA_OF_ASC_NODE":105.7301,"ARG_OF_PERICENTER":273.1755,"MEAN_ANOMALY":86.7011,"EPHEMERIS_TYPE":0,"CLASSIFICATION_TYPE":"U","NORAD_CAT_ID":47700,"ELEMENT_SET_NO":999,"REV_AT_EPOCH":27907,"BSTAR":0.00033462,"MEAN_MOTION_DOT":0.00013956,"MEAN_MOTION_DDOT":0}]
